{
 "generated_at": "2026-07-10T08:23:00Z",
 "sources": [
  {
   "name": "CelesTrak",
   "url": "https://celestrak.org/NORAD/elements/",
   "license": "frei verfügbar; Attribution. Ursprünglich USSPACECOM/Space-Track."
  },
  {
   "name": "GCAT (J. McDowell, planet4589.org)",
   "url": "https://planet4589.org/space/gcat/",
   "license": "CC-BY 4.0"
  }
 ],
 "satellites": [
  {
   "norad": 43719,
   "name": "HYSIS",
   "intl": "2018-096A",
   "group": "resource",
   "gcat": {
    "class": "C",
    "category": "IMG",
    "owner": "ISRO",
    "state": "IN"
   },
   "omm": {
    "OBJECT_NAME": "HYSIS",
    "OBJECT_ID": "2018-096A",
    "EPOCH": "2026-07-09T19:31:25.423680",
    "MEAN_MOTION": 14.78663823,
    "ECCENTRICITY": 0.0001855,
    "INCLINATION": 97.9828,
    "RA_OF_ASC_NODE": 257.3831,
    "ARG_OF_PERICENTER": 86.7674,
    "MEAN_ANOMALY": 273.3749,
    "EPHEMERIS_TYPE": 0,
    "CLASSIFICATION_TYPE": "U",
    "NORAD_CAT_ID": 43719,
    "ELEMENT_SET_NO": 999,
    "REV_AT_EPOCH": 41076,
    "BSTAR": 0.00011079,
    "MEAN_MOTION_DOT": 0.0000076,
    "MEAN_MOTION_DDOT": 0
   }
  },
  {
   "norad": 43613,
   "name": "ICESAT-2",
   "intl": "2018-070A",
   "group": "resource",
   "gcat": {
    "class": "C",
    "category": "SCI",
    "owner": "GSFC",
    "state": "US"
   },
   "omm": {
    "OBJECT_NAME": "ICESAT-2",
    "OBJECT_ID": "2018-070A",
    "EPOCH": "2026-07-09T19:27:43.144128",
    "MEAN_MOTION": 15.28289273,
    "ECCENTRICITY": 0.0005837,
    "INCLINATION": 92.0085,
    "RA_OF_ASC_NODE": 297.0925,
    "ARG_OF_PERICENTER": 76.8732,
    "MEAN_ANOMALY": 283.3168,
    "EPHEMERIS_TYPE": 0,
    "CLASSIFICATION_TYPE": "U",
    "NORAD_CAT_ID": 43613,
    "ELEMENT_SET_NO": 999,
    "REV_AT_EPOCH": 43591,
    "BSTAR": 0.00023956,
    "MEAN_MOTION_DOT": 0.00006602,
    "MEAN_MOTION_DDOT": 0
   }
  },
  {
   "norad": 43800,
   "name": "ICEYE-X2",
   "intl": "2018-099AU",
   "group": "sar",
   "gcat": {
    "class": "B",
    "category": "IMG-R",
    "owner": "ICEYE",
    "state": "FI"
   },
   "omm": {
    "OBJECT_NAME": "ICEYE-X2",
    "OBJECT_ID": "2018-099AU",
    "EPOCH": "2026-07-09T21:15:09.982080",
    "MEAN_MOTION": 15.17999635,
    "ECCENTRICITY": 0.0009263,
    "INCLINATION": 97.4351,
    "RA_OF_ASC_NODE": 244.3286,
    "ARG_OF_PERICENTER": 215.1148,
    "MEAN_ANOMALY": 144.9476,
    "EPHEMERIS_TYPE": 0,
    "CLASSIFICATION_TYPE": "U",
    "NORAD_CAT_ID": 43800,
    "ELEMENT_SET_NO": 999,
    "REV_AT_EPOCH": 41626,
    "BSTAR": 0.0001924,
    "MEAN_MOTION_DOT": 0.00003848,
    "MEAN_MOTION_DDOT": 0
   }
  },
  {
   "norad": 55049,
   "name": "ICEYE-X21",
   "intl": "2023-001AS",
   "group": "sar",
   "gcat": {
    "class": "B",
    "category": "IMG-R",
    "owner": "ICEYE",
    "state": "FI"
   },
   "omm": {
    "OBJECT_NAME": "ICEYE-X21",
    "OBJECT_ID": "2023-001AS",
    "EPOCH": "2026-06-24T05:11:18.420288",
    "MEAN_MOTION": 16.24069885,
    "ECCENTRICITY": 0.00123774,
    "INCLINATION": 97.3001,
    "RA_OF_ASC_NODE": 262.6152,
    "ARG_OF_PERICENTER": 285.9702,
    "MEAN_ANOMALY": 74.0225,
    "EPHEMERIS_TYPE": 0,
    "CLASSIFICATION_TYPE": "U",
    "NORAD_CAT_ID": 55049,
    "ELEMENT_SET_NO": 999,
    "REV_AT_EPOCH": 19475,
    "BSTAR": 0.000602142,
    "MEAN_MOTION_DOT": 0.01585954,
    "MEAN_MOTION_DDOT": 0.000002396838
   }
  },
  {
   "norad": 56963,
   "name": "ICEYE-X25",
   "intl": "2023-084AH",
   "group": "sar",
   "gcat": {
    "class": "B",
    "category": "IMG-R",
    "owner": "ICEYE",
    "state": "FI"
   },
   "omm": {
    "OBJECT_NAME": "ICEYE-X25",
    "OBJECT_ID": "2023-084AH",
    "EPOCH": "2026-07-09T19:25:38.085312",
    "MEAN_MOTION": 15.62465537,
    "ECCENTRICITY": 0.000401,
    "INCLINATION": 97.5899,
    "RA_OF_ASC_NODE": 338.6543,
    "ARG_OF_PERICENTER": 202.6554,
    "MEAN_ANOMALY": 157.4527,
    "EPHEMERIS_TYPE": 0,
    "CLASSIFICATION_TYPE": "U",
    "NORAD_CAT_ID": 56963,
    "ELEMENT_SET_NO": 999,
    "REV_AT_EPOCH": 17150,
    "BSTAR": 0.00043952,
    "MEAN_MOTION_DOT": 0.00039039,
    "MEAN_MOTION_DDOT": 0
   }
  },
  {
   "norad": 58288,
   "name": "ICEYE-X31",
   "intl": "2023-174AJ",
   "group": "sar",
   "gcat": {
    "class": "B",
    "category": "IMG-R",
    "owner": "ICEYE",
    "state": "FI"
   },
   "omm": {
    "OBJECT_NAME": "ICEYE-X31",
    "OBJECT_ID": "2023-174AJ",
    "EPOCH": "2026-07-09T21:25:05.401632",
    "MEAN_MOTION": 15.35061959,
    "ECCENTRICITY": 0.0002168,
    "INCLINATION": 97.3775,
    "RA_OF_ASC_NODE": 266.6364,
    "ARG_OF_PERICENTER": 202.285,
    "MEAN_ANOMALY": 157.8299,
    "EPHEMERIS_TYPE": 0,
    "CLASSIFICATION_TYPE": "U",
    "NORAD_CAT_ID": 58288,
    "ELEMENT_SET_NO": 999,
    "REV_AT_EPOCH": 14823,
    "BSTAR": 0.00036543,
    "MEAN_MOTION_DOT": 0.00012359,
    "MEAN_MOTION_DDOT": 0
   }
  },
  {
   "norad": 60548,
   "name": "ICEYE-X33",
   "intl": "2024-149CJ",
   "group": "sar",
   "gcat": {
    "class": "B",
    "category": "IMG-R",
    "owner": "ICEUS/ICEYE",
    "state": "US"
   },
   "omm": {
    "OBJECT_NAME": "ICEYE-X33",
    "OBJECT_ID": "2024-149CJ",
    "EPOCH": "2026-07-08T18:28:20.627616",
    "MEAN_MOTION": 15.00930628,
    "ECCENTRICITY": 0.00019242,
    "INCLINATION": 97.7339,
    "RA_OF_ASC_NODE": 268.7997,
    "ARG_OF_PERICENTER": 74.9418,
    "MEAN_ANOMALY": 285.2019,
    "EPHEMERIS_TYPE": 0,
    "CLASSIFICATION_TYPE": "U",
    "NORAD_CAT_ID": 60548,
    "ELEMENT_SET_NO": 999,
    "REV_AT_EPOCH": 10344,
    "BSTAR": 0.00025626102,
    "MEAN_MOTION_DOT": 0.00003205,
    "MEAN_MOTION_DDOT": 0
   }
  },
  {
   "norad": 58294,
   "name": "ICEYE-X34",
   "intl": "2023-174AQ",
   "group": "sar",
   "gcat": {
    "class": "B",
    "category": "IMG-R",
    "owner": "ICEUS",
    "state": "US"
   },
   "omm": {
    "OBJECT_NAME": "ICEYE-X34",
    "OBJECT_ID": "2023-174AQ",
    "EPOCH": "2026-07-08T18:12:20.023776",
    "MEAN_MOTION": 15.6975075,
    "ECCENTRICITY": 0.00016009,
    "INCLINATION": 97.3861,
    "RA_OF_ASC_NODE": 282.0601,
    "ARG_OF_PERICENTER": 191.4512,
    "MEAN_ANOMALY": 168.6714,
    "EPHEMERIS_TYPE": 0,
    "CLASSIFICATION_TYPE": "U",
    "NORAD_CAT_ID": 58294,
    "ELEMENT_SET_NO": 999,
    "REV_AT_EPOCH": 14912,
    "BSTAR": 0.001077636,
    "MEAN_MOTION_DOT": 0.00129633,
    "MEAN_MOTION_DDOT": 0
   }
  },
  {
   "norad": 58302,
   "name": "ICEYE-X35",
   "intl": "2023-174AY",
   "group": "sar",
   "gcat": {
    "class": "B",
    "category": "IMG-R",
    "owner": "ICEYE",
    "state": "FI"
   },
   "omm": {
    "OBJECT_NAME": "ICEYE-X35",
    "OBJECT_ID": "2023-174AY",
    "EPOCH": "2026-07-09T20:23:03.948864",
    "MEAN_MOTION": 15.54753769,
    "ECCENTRICITY": 0.0008279,
    "INCLINATION": 97.3784,
    "RA_OF_ASC_NODE": 276.0812,
    "ARG_OF_PERICENTER": 124.3308,
    "MEAN_ANOMALY": 235.873,
    "EPHEMERIS_TYPE": 0,
    "CLASSIFICATION_TYPE": "U",
    "NORAD_CAT_ID": 58302,
    "ELEMENT_SET_NO": 999,
    "REV_AT_EPOCH": 14886,
    "BSTAR": 0.00066384,
    "MEAN_MOTION_DOT": 0.00044244,
    "MEAN_MOTION_DDOT": 0
   }
  },
  {
   "norad": 59103,
   "name": "ICEYE-X36",
   "intl": "2024-043F",
   "group": "sar",
   "gcat": {
    "class": "B",
    "category": "IMG-R",
    "owner": "ICEUS",
    "state": "US"
   },
   "omm": {
    "OBJECT_NAME": "ICEYE-X36",
    "OBJECT_ID": "2024-043F",
    "EPOCH": "2026-07-09T03:52:32.088000",
    "MEAN_MOTION": 15.07205059,
    "ECCENTRICITY": 0.00047687,
    "INCLINATION": 97.8388,
    "RA_OF_ASC_NODE": 328.629,
    "ARG_OF_PERICENTER": 236.8227,
    "MEAN_ANOMALY": 123.2543,
    "EPHEMERIS_TYPE": 0,
    "CLASSIFICATION_TYPE": "U",
    "NORAD_CAT_ID": 59103,
    "ELEMENT_SET_NO": 999,
    "REV_AT_EPOCH": 12845,
    "BSTAR": 0.00015122012,
    "MEAN_MOTION_DOT": 0.00002211,
    "MEAN_MOTION_DDOT": 0
   }
  },
  {
   "norad": 59102,
   "name": "ICEYE-X37",
   "intl": "2024-043E",
   "group": "sar",
   "gcat": {
    "class": "B",
    "category": "IMG-R",
    "owner": "ICEUS",
    "state": "US"
   },
   "omm": {
    "OBJECT_NAME": "ICEYE-X37",
    "OBJECT_ID": "2024-043E",
    "EPOCH": "2026-07-09T04:05:16.918080",
    "MEAN_MOTION": 15.06269953,
    "ECCENTRICITY": 0.00136199,
    "INCLINATION": 97.8336,
    "RA_OF_ASC_NODE": 327.5215,
    "ARG_OF_PERICENTER": 297.0172,
    "MEAN_ANOMALY": 62.9664,
    "EPHEMERIS_TYPE": 0,
    "CLASSIFICATION_TYPE": "U",
    "NORAD_CAT_ID": 59102,
    "ELEMENT_SET_NO": 999,
    "REV_AT_EPOCH": 12839,
    "BSTAR": 0.00015354558,
    "MEAN_MOTION_DOT": 0.00002192,
    "MEAN_MOTION_DDOT": 0
   }
  },
  {
   "norad": 59100,
   "name": "ICEYE-X38",
   "intl": "2024-043C",
   "group": "sar",
   "gcat": {
    "class": "B",
    "category": "IMG-R",
    "owner": "ICEYE",
    "state": "FI"
   },
   "omm": {
    "OBJECT_NAME": "ICEYE-X38",
    "OBJECT_ID": "2024-043C",
    "EPOCH": "2026-07-09T08:09:07.914816",
    "MEAN_MOTION": 15.13059933,
    "ECCENTRICITY": 0.00028441,
    "INCLINATION": 97.8425,
    "RA_OF_ASC_NODE": 334.7017,
    "ARG_OF_PERICENTER": 37.1672,
    "MEAN_ANOMALY": 322.9754,
    "EPHEMERIS_TYPE": 0,
    "CLASSIFICATION_TYPE": "U",
    "NORAD_CAT_ID": 59100,
    "ELEMENT_SET_NO": 999,
    "REV_AT_EPOCH": 11502,
    "BSTAR": 0.00020470449,
    "MEAN_MOTION_DOT": 0.0000355,
    "MEAN_MOTION_DDOT": 0
   }
  },
  {
   "norad": 60546,
   "name": "ICEYE-X39",
   "intl": "2024-149CG",
   "group": "sar",
   "gcat": {
    "class": "B",
    "category": "IMG-R",
    "owner": "FAB/ICEYE",
    "state": "BR"
   },
   "omm": {
    "OBJECT_NAME": "ICEYE-X39",
    "OBJECT_ID": "2024-149CG",
    "EPOCH": "2026-07-08T18:11:05.756064",
    "MEAN_MOTION": 15.00041901,
    "ECCENTRICITY": 0.00069867,
    "INCLINATION": 97.677,
    "RA_OF_ASC_NODE": 266.4889,
    "ARG_OF_PERICENTER": 63.7023,
    "MEAN_ANOMALY": 296.4918,
    "EPHEMERIS_TYPE": 0,
    "CLASSIFICATION_TYPE": "U",
    "NORAD_CAT_ID": 60546,
    "ELEMENT_SET_NO": 999,
    "REV_AT_EPOCH": 10335,
    "BSTAR": 0.00022606183,
    "MEAN_MOTION_DOT": 0.00002756,
    "MEAN_MOTION_DDOT": 0
   }
  }
 ]
}
